# From MPC106342
C/1995 O1 (Hale-Bopp),e,89.1949,282.9275,130.4321,177.4301,0.0004170,0.99496782,0.0000,03/29.7026/1997,2000,g -2.0,4.0
# From NK 1615
P/1996 R2 (Lagerkvist),e,2.6008,40.0112,333.3618,3.774833,0.1343871,0.31444960,155.0309,04/11.0/2022,2000,g 11.5,4.0
# From MPC 75703
P/1998 VS24 (LINEAR),e,5.0265,159.0395,244.6045,4.526592,0.1023404,0.24279732,157.9066,04/11.0/2022,2000,g 13.0,2.0
# From NK 731
P/1999 RO28 (LONEOS),e,7.5667,137.8816,231.2764,3.426633,0.1553827,0.67243849,158.3950,04/11.0/2022,2000,g 20.0,2.0
# From MPC 75704
P/1999 XN120 (Catalina),e,5.0297,285.2962,161.7359,4.179043,0.1153689,0.21026516,203.9168,04/11.0/2022,2000,g 13.5,2.0
# From NK 744
P/2000 R2 (LINEAR),e,11.6872,160.2855,176.5711,3.467323,0.1526555,0.53154680,156.9735,04/11.0/2022,2000,g 18.0,4.0
# From MPC 43019
P/2001 H5 (NEAT),e,8.3671,328.6846,224.7884,6.096606,0.0654744,0.59824703,155.1129,04/11.0/2022,2000,g 12.0,4.0
# From MPC 75704
P/2001 Q6 (NEAT),e,56.9114,22.1783,42.9315,7.956429,0.0439164,0.82320354,329.7630,04/11.0/2022,2000,g 13.5,4.0
# From MPC 47727
P/2002 EJ57 (LINEAR),e,4.9767,330.3192,167.3175,6.466280,0.0599408,0.59228286,83.5276,04/11.0/2022,2000,g 12.5,4.0
# From MPC109588
P/2002 T6 (NEAT-LINEAR),e,10.8460,206.1197,219.6331,7.709097,0.0460467,0.56166542,321.6995,04/11.0/2022,2000,g 10.5,4.0
# From MPC 75007
C/2002 VQ94 (LINEAR),e,70.6618,35.1094,100.0445,184.4418,0.0003935,0.96303431,2.3280,04/11.0/2022,2000,g  9.5,2.0
# From MPC 50354
P/2003 F2 (NEAT),e,11.6090,359.0048,192.2406,6.502933,0.0594347,0.54172495,52.3311,04/11.0/2022,2000,g 16.5,2.0
# From MPC 50139
P/2003 QX29 (NEAT),e,11.3916,264.5361,37.6005,8.020636,0.0433901,0.47279597,307.3652,04/11.0/2022,2000,g  8.5,4.0
# From MPC105235
P/2003 T12 (SOHO),e,11.0220,174.5838,219.7459,2.585706,0.2370474,0.76998491,166.8687,04/11.0/2022,2000,g 17.0,4.0
# From MPC 82312
P/2004 A1 (LONEOS),e,10.5517,124.8551,21.1621,7.967140,0.0438279,0.30965031,283.5519,04/11.0/2022,2000,g  6.5,4.0
# From MPC 54558
P/2004 DO29 (Spacewatch-LINEAR),e,14.5321,147.3736,40.5753,7.291110,0.0500626,0.44113611,320.6933,04/11.0/2022,2000,g 13.5,2.0
# From MPC 54823
P/2004 FY140 (LINEAR),e,2.1348,326.7710,242.2397,4.905415,0.0907174,0.16793968,222.9314,04/11.0/2022,2000,g 12.5,2.0
# From MPC 53304
P/2004 R3 (LINEAR-NEAT),e,12.7830,305.3660,37.7894,4.771574,0.0945609,0.25669425,19.0504,04/11.0/2022,2000,g 14.5,4.0
# From MPC 55521
P/2004 V3 (Siding Spring),e,50.4436,356.1294,322.4338,7.134477,0.0517203,0.44614751,329.4485,04/11.0/2022,2000,g 11.5,4.0
# From MPC 75705
P/2004 V5 (LINEAR-Hill),e,19.3406,47.7889,87.6171,7.984986,0.0436810,0.44414501,274.6919,04/11.0/2022,2000,g  8.0,4.0
# From MPC 54164
P/2005 E1 (Tubbiolo),e,4.2636,335.5711,193.9523,7.046094,0.0526965,0.37532321,331.7634,04/11.0/2022,2000,g 10.0,4.0
# From MPC 54823
P/2005 GF8 (LONEOS),e,1.1816,314.3884,284.5609,5.796091,0.0706320,0.51687615,65.5381,04/11.0/2022,2000,g 11.5,4.0
# From MPC 79019
P/2005 J1 (McNaught),e,31.7484,268.8235,338.9486,3.571281,0.1460387,0.56923487,186.4996,04/11.0/2022,2000,g 16.5,4.0
# From MPC 74246
P/2005 L1 (McNaught),e,7.7375,138.2493,149.7968,3.981145,0.1240772,0.21060721,19.7127,04/11.0/2022,2000,g  9.5,4.0
# From MPC 75706
P/2005 S2 (Skiff),e,3.1356,161.2206,229.2841,8.009518,0.0434805,0.19814600,252.5292,04/11.0/2022,2000,g  7.5,4.0
# From MPC 75706
P/2005 SB216 (LONEOS),e,24.1055,1.1395,83.2904,7.140146,0.0516587,0.46425448,288.8926,04/11.0/2022,2000,g 12.0,2.0
# From MPC 73461
P/2005 T3 (Read),e,6.2235,27.6878,6.6846,7.586949,0.0471632,0.17504089,285.1371,04/11.0/2022,2000,g  9.0,4.0
# From MPC 73461
P/2005 T4 (SWAN),e,160.2497,25.8619,41.7724,9.360466,0.0344158,0.92971330,207.6068,04/11.0/2022,2000,g 15.0,4.0
# From MPC 75706
P/2005 T5 (Broughton),e,21.3725,56.9994,304.6399,7.284728,0.0501284,0.55260047,301.8442,04/11.0/2022,2000,g 11.0,4.0
# From MPC 75706
P/2005 Y2 (McNaught),e,19.0456,94.2269,193.7459,6.350157,0.0615924,0.46866902,33.2724,04/11.0/2022,2000,g  9.0,4.0
# From MPC 56954
P/2006 F4 (Spacewatch),e,12.4481,183.8289,30.6748,3.514692,0.1495799,0.34188805,146.9082,04/11.0/2022,2000,g 15.0,4.0
# From MPC 75707
P/2006 HR30 (Siding Spring),e,31.8440,309.8688,117.3307,7.810119,0.0451562,0.84278710,252.7980,04/11.0/2022,2000,g 11.0,4.0
# From MPC 75707
P/2007 A2 (Christensen),e,26.4871,300.9114,186.7087,6.333406,0.0618370,0.55812361,345.6484,04/11.0/2022,2000,g 13.5,4.0
# From MPC 75707
P/2007 C2 (Catalina),e,8.6142,275.3665,180.1462,6.995351,0.0532709,0.47169848,283.1244,04/11.0/2022,2000,g 10.0,4.0
# From MPC 84315
C/2007 D1 (LINEAR),e,41.5016,171.2330,339.8823,1259,0.0000221,0.99300738,0.0000,06/07.2813/2007,2000,g  3.5,4.0
# From MPC 82314
P/2007 K2 (Gibbs),e,7.6284,188.6363,347.3859,7.271247,0.0502679,0.68297372,273.2953,04/11.0/2022,2000,g 14.0,4.0
# From MPC 60925
P/2007 Q2 (Gilmore),e,10.2026,172.1547,162.8189,5.655226,0.0732874,0.67010510,36.6443,04/11.0/2022,2000,g 16.0,4.0
# From MPC 73462
P/2007 S1 (Zhao),e,5.9631,141.3689,245.2927,3.823329,0.1318383,0.33978949,336.3759,04/11.0/2022,2000,g 13.0,4.0
# From MPC 61994
P/2007 T2 (Kowalski),e,9.7519,3.3770,359.6515,3.046260,0.1853761,0.78561073,251.4479,04/11.0/2022,2000,g 18.5,4.0
# From MPC 75709
P/2008 L2 (Hill),e,25.8675,218.0157,141.2511,6.027462,0.0666043,0.61337414,333.6876,04/11.0/2022,2000,g 12.5,4.0
# From MPC 64114
P/2008 O3 (Boattini),e,32.3103,47.5708,341.1383,8.217731,0.0418385,0.69607368,211.9173,04/11.0/2022,2000,g 13.0,4.0
# From MPC 75710
P/2008 Y3 (McNaught),e,38.7744,262.8331,238.1021,8.047691,0.0431715,0.44560004,209.9322,04/11.0/2022,2000,g  8.5,4.0
# From MPC 75710
P/2009 B1 (Boattini),e,22.2280,297.0811,128.8820,6.737562,0.0563573,0.63530899,273.0832,04/11.0/2022,2000,g 13.0,4.0
# From MPC 66466
C/2009 G1 (STEREO),e,108.6214,120.5007,175.4791,455.8808,0.0001013,0.99750147,0.0000,04/17.3950/2009,2000,g  9.0,4.0
# From MPC 75710
P/2009 O3 (Hill),e,16.2854,183.6884,154.4675,7.767582,0.0455277,0.68786715,214.0770,04/11.0/2022,2000,g 12.5,4.0
# From MPC 68902
P/2009 Q5 (McNaught),e,40.9886,160.2799,209.0688,7.432238,0.0486435,0.60960313,223.5469,04/11.0/2022,2000,g 10.0,4.0
# From MPC112389
P/2009 T2 (La Sagra),e,27.5914,215.8712,216.3399,7.720653,0.0459434,0.76600159,206.1243,04/11.0/2022,2000,g 14.0,4.0
# From MPC105235
P/2009 WX51 (Catalina),e,9.5937,31.5953,118.2287,3.082643,0.1821039,0.73973579,93.0281,04/11.0/2022,2000,g 19.0,2.0
# From MPC 74247
P/2009 Y2 (Kowalski),e,29.9496,262.0337,172.1306,6.550216,0.0587923,0.63646286,260.2334,04/11.0/2022,2000,g 13.0,4.0
# From MPC 75711
P/2010 A3 (Hill),e,14.8195,63.6920,42.2497,6.083358,0.0656884,0.73362786,289.9685,04/11.0/2022,2000,g 14.0,4.0
# From MPC 75008
P/2010 C1 (Scotti),e,9.1278,141.8844,3.4977,7.103950,0.0520540,0.25966288,236.2993,04/11.0/2022,2000,g  9.5,4.0
# From MPC 75008
P/2010 D2 (WISE),e,57.0914,319.8869,119.9656,6.719635,0.0565830,0.45125594,251.5513,04/11.0/2022,2000,g 16.0,4.0
# From MPC 75009
P/2010 E2 (Jarnac),e,15.3867,177.8207,8.3295,8.640034,0.0388089,0.71952003,170.6723,04/11.0/2022,2000,g 14.0,4.0
# From MPC 72851
P/2010 H2 (Vales),e,14.2771,64.1885,128.0359,3.832560,0.1313622,0.19631195,220.1493,04/11.0/2022,2000,g  6.0,4.0
# From MPC 70361
P/2010 H3 (SOHO),e,23.0617,77.0823,26.1626,3.036688,0.1862532,0.98535194,0.0000,02/07.9118/2021,2000,g 20.0,2.0
# From MPC 73463
P/2010 H4 (Scotti),e,2.3179,44.7296,179.4208,6.596710,0.0581719,0.26646869,251.3836,04/11.0/2022,2000,g 10.5,4.0
# From MPC 74637
P/2010 H5 (Scotti),e,14.0586,24.7971,174.9315,7.167597,0.0513622,0.15265990,225.9892,04/11.0/2022,2000,g 13.0,2.0
# From MPC 98558
P/2010 J3 (McMillan),e,13.2747,106.4459,157.5942,8.977498,0.0366413,0.72610923,155.5242,04/11.0/2022,2000,g 11.0,4.0
# From MPC 84315
P/2010 JC81 (WISE),e,38.7994,30.8613,12.4235,8.107221,0.0426969,0.77757883,171.0595,04/11.0/2022,2000,g  9.0,4.0
# From MPC 74248
P/2010 T2 (PANSTARRS),e,7.8870,58.6620,352.9322,5.553280,0.0753147,0.32238901,306.7163,04/11.0/2022,2000,g 11.5,4.0
# From MPC 98558
P/2010 TO20 (LINEAR-Grauer),e,2.4788,43.2876,267.1987,5.832538,0.0699709,0.05552145,344.0724,04/11.0/2022,2000,g  9.0,4.0
# From MPC 82316
P/2010 U1 (Boattini),e,8.2178,280.6904,86.1282,6.505003,0.0594063,0.24894642,264.4645,04/11.0/2022,2000,g  9.5,4.0
# From MPEC 2021-R75
C/2010 U3 (Boattini),e,55.5442,43.0029,88.0384,2477,0.0000080,0.99659092,0.0000,02/25.1580/2019,2000,g  1.0,4.0
# From MPC 79021
P/2010 UH55 (Spacewatch),e,8.0388,232.9138,225.1520,6.654374,0.0574174,0.56348937,230.9821,04/11.0/2022,2000,g 11.0,4.0
# From MPC 75009
P/2010 WK (LINEAR),e,11.4016,11.3327,40.9680,5.762278,0.0712546,0.69030970,300.6759,04/11.0/2022,2000,g 14.5,2.0
# From MPC 84021
P/2011 C2 (Gibbs),e,10.8865,12.1214,160.6718,7.412716,0.0488358,0.26900943,183.7222,04/11.0/2022,2000,g  9.0,4.0
# From MPC 79866
P/2011 FR143 (Lemmon),e,15.9766,190.9497,350.0011,6.861686,0.0548350,0.45052346,222.9521,04/11.0/2022,2000,g 14.0,2.0
# From MPC 82317
P/2011 JB15 (Spacewatch-Boattini),e,19.1475,153.5814,111.0721,7.362518,0.0493361,0.31662914,184.2179,04/11.0/2022,2000,g  9.0,4.0
# From MPC 87913
P/2011 N1 (ASH),e,35.7493,77.5828,330.3589,6.246489,0.0631321,0.54465775,228.0410,04/11.0/2022,2000,g 11.5,4.0
# From MPC 75714
P/2011 NO1 (Elenin),e,15.2457,295.8204,263.7342,5.528761,0.0758162,0.77454219,311.0911,04/11.0/2022,2000,g 15.0,4.0
# From MPEC 2022-ED3
P/2011 P1 (McNaught),e,5.6610,4.2315,349.0780,7.460980,0.0483627,0.32755443,206.7165,04/11.0/2022,2000,g  9.0,4.0
# From MPC 77806
P/2011 Q3 (McNaught),e,6.0573,32.0239,310.9853,4.973564,0.0888592,0.53306091,348.4167,04/11.0/2022,2000,g 13.5,4.0
# From MPC 98558
P/2011 S1 (Gibbs),e,2.6863,218.8468,192.4428,8.583309,0.0391942,0.20115577,109.6728,04/11.0/2022,2000,g  8.0,4.0
# From MPC 79022
P/2011 UA134 (Spacewatch-PANSTARRS),e,10.4405,40.4000,32.4041,5.608744,0.0742003,0.62957420,282.5854,04/11.0/2022,2000,g 17.5,4.0
# From MPC 77406
P/2011 V1 (Boattini),e,7.3750,46.7999,269.3501,3.856533,0.1301393,0.55035175,167.4424,04/11.0/2022,2000,g 15.5,4.0
# From MPC 82718
